{"type": "FeatureCollection", "features": [ {"type": "Feature", "properties": {"norad_id": 40664, "name": "SKY MEXICO-1", "group": "intelsat", "lat": 0.026457425195132164, "lon": 133.34237292017883, "alt_km": 35795.125151157124, "timestamp": "2025-12-08T08:59:00.439947+00:00", "meta": {"OBJECT_NAME": "SKY MEXICO-1", "OBJECT_ID": "2015-026B", "EPOCH": "2025-12-07T21:49:11.481888", "MEAN_MOTION": 1.00271005, "ECCENTRICITY": 0.00027774, "INCLINATION": 0.019, "RA_OF_ASC_NODE": 47.267, "ARG_OF_PERICENTER": 224.5483, "MEAN_ANOMALY": 53.6424, "EPHEMERIS_TYPE": 0, "CLASSIFICATION_TYPE": "U", "NORAD_CAT_ID": 40664, "ELEMENT_SET_NO": 999, "REV_AT_EPOCH": 3853, "BSTAR": 0, "MEAN_MOTION_DOT": -2.31e-06, "MEAN_MOTION_DDOT": 0}, "tle": {"line1": "1 40664U 15026B   25341.90916067 -.00000231  00000+0  00000+0 0  9992", "line2": "2 40664   0.0190  47.2670 0002777 224.5483  53.6424  1.00271005 38538"}}, "geometry": {"type": "Point", "coordinates": [133.34237292017883, 0.026457425195132164]}}, {"type": "Feature", "properties": {"norad_id": 40874, "name": "INTELSAT 34 (IS-34)", "group": "intelsat", "lat": -0.007412157392365875, "lon": 156.63023937826136, "alt_km": 35783.722148134235, "timestamp": "2025-12-08T08:59:00.439973+00:00", "meta": {"OBJECT_NAME": "INTELSAT 34 (IS-34)", "OBJECT_ID": "2015-039A", "EPOCH": "2025-12-07T20:13:05.685888", "MEAN_MOTION": 1.00271181, "ECCENTRICITY": 6.715e-05, "INCLINATION": 0.0119, "RA_OF_ASC_NODE": 308.5546, "ARG_OF_PERICENTER": 231.021, "MEAN_ANOMALY": 145.0618, "EPHEMERIS_TYPE": 0, "CLASSIFICATION_TYPE": "U", "NORAD_CAT_ID": 40874, "ELEMENT_SET_NO": 999, "REV_AT_EPOCH": 3770, "BSTAR": 0, "MEAN_MOTION_DOT": -2.82e-06, "MEAN_MOTION_DDOT": 0}, "tle": {"line1": "1 40874U 15039A   25341.84242692 -.00000282  00000+0  00000+0 0  9994", "line2": "2 40874   0.0119 308.5546 0000671 231.0210 145.0618  1.00271181 37703"}}, "geometry": {"type": "Point", "coordinates": [156.63023937826136, -0.007412157392365875]}}, {"type": "Feature", "properties": {"norad_id": 41581, "name": "INTELSAT 31 (IS-31)", "group": "intelsat", "lat": 0.0023742596247232567, "lon": 117.04521929443847, "alt_km": 35788.166167929965, "timestamp": "2025-12-08T08:59:00.439987+00:00", "meta": {"OBJECT_NAME": "INTELSAT 31 (IS-31)", "OBJECT_ID": "2016-035A", "EPOCH": "2025-12-07T21:44:34.424736", "MEAN_MOTION": 1.00270098, "ECCENTRICITY": 0.00020601, "INCLINATION": 0.0206, "RA_OF_ASC_NODE": 269.6153, "ARG_OF_PERICENTER": 307.7173, "MEAN_ANOMALY": 90.6739, "EPHEMERIS_TYPE": 0, "CLASSIFICATION_TYPE": "U", "NORAD_CAT_ID": 41581, "ELEMENT_SET_NO": 999, "REV_AT_EPOCH": 3476, "BSTAR": 0, "MEAN_MOTION_DOT": -1.47e-06, "MEAN_MOTION_DDOT": 0}, "tle": {"line1": "1 41581U 16035A   25341.90595399 -.00000147  00000+0  00000+0 0  9999", "line2": "2 41581   0.0206 269.6153 0002060 307.7173  90.6739  1.00270098 34768"}}, "geometry": {"type": "Point", "coordinates": [117.04521929443847, 0.0023742596247232567]}}, {"type": "Feature", "properties": {"norad_id": 41747, "name": "INTELSAT 36 (IS-36)", "group": "intelsat", "lat": -0.030109722327679334, "lon": -79.36271035010749, "alt_km": 35777.39234118988, "timestamp": "2025-12-08T08:59:00.440000+00:00", "meta": {"OBJECT_NAME": "INTELSAT 36 (IS-36)", "OBJECT_ID": "2016-053A", "EPOCH": "2025-12-07T22:41:38.510304", "MEAN_MOTION": 1.00278743, "ECCENTRICITY": 0.00017287, "INCLINATION": 0.0105, "RA_OF_ASC_NODE": 350.0419, "ARG_OF_PERICENTER": 313.3689, "MEAN_ANOMALY": 182.4646, "EPHEMERIS_TYPE": 0, "CLASSIFICATION_TYPE": "U", "NORAD_CAT_ID": 41747, "ELEMENT_SET_NO": 999, "REV_AT_EPOCH": 3403, "BSTAR": 0, "MEAN_MOTION_DOT": -2.3e-07, "MEAN_MOTION_DDOT": 0}, "tle": {"line1": "1 41747U 16053A   25341.94558461 -.00000023  00000+0  00000+0 0  9999", "line2": "2 41747   0.0105 350.0419 0001728 313.3689 182.4646  1.00278743 34037"}}, "geometry": {"type": "Point", "coordinates": [-79.36271035010749, -0.030109722327679334]}}, {"type": "Feature", "properties": {"norad_id": 41945, "name": "INTELSAT 32E (IS-32E)", "group": "intelsat", "lat": 0.02207687611332888, "lon": 168.95023861313223, "alt_km": 35787.01344346455, "timestamp": "2025-12-08T08:59:00.440012+00:00", "meta": {"OBJECT_NAME": "INTELSAT 32E (IS-32E)", "OBJECT_ID": "2017-007B", "EPOCH": "2025-12-07T18:33:56.052288", "MEAN_MOTION": 1.00270605, "ECCENTRICITY": 1.567e-05, "INCLINATION": 0.0292, "RA_OF_ASC_NODE": 69.0658, "ARG_OF_PERICENTER": 245.4266, "MEAN_ANOMALY": 357.6063, "EPHEMERIS_TYPE": 0, "CLASSIFICATION_TYPE": "U", "NORAD_CAT_ID": 41945, "ELEMENT_SET_NO": 999, "REV_AT_EPOCH": 3230, "BSTAR": 0, "MEAN_MOTION_DOT": -2.66e-06, "MEAN_MOTION_DDOT": 0}, "tle": {"line1": "1 41945U 17007B   25341.77356542 -.00000266  00000+0  00000+0 0  9995", "line2": "2 41945   0.0292  69.0658 0000156 245.4266 357.6063  1.00270605 32302"}}, "geometry": {"type": "Point", "coordinates": [168.95023861313223, 0.02207687611332888]}}, {"type": "Feature", "properties": {"norad_id": 42818, "name": "INTELSAT 35E (IS-35E)", "group": "intelsat", "lat": -0.017700961871606854, "lon": 177.6068004925706, "alt_km": 35786.04405716703, "timestamp": "2025-12-08T08:59:00.440024+00:00", "meta": {"OBJECT_NAME": "INTELSAT 35E (IS-35E)", "OBJECT_ID": "2017-041A", "EPOCH": "2025-12-07T22:01:53.922144", "MEAN_MOTION": 1.0026945, "ECCENTRICITY": 0.00023727, "INCLINATION": 0.0168, "RA_OF_ASC_NODE": 323.2068, "ARG_OF_PERICENTER": 300.2456, "MEAN_ANOMALY": 109.4639, "EPHEMERIS_TYPE": 0, "CLASSIFICATION_TYPE": "U", "NORAD_CAT_ID": 42818, "ELEMENT_SET_NO": 999, "REV_AT_EPOCH": 3089, "BSTAR": 0, "MEAN_MOTION_DOT": -2.35e-06, "MEAN_MOTION_DDOT": 0}, "tle": {"line1": "1 42818U 17041A   25341.91798521 -.00000235  00000+0  00000+0 0  9992", "line2": "2 42818   0.0168 323.2068 0002372 300.2456 109.4639  1.00269450 30897"}}, "geometry": {"type": "Point", "coordinates": [177.6068004925706, -0.017700961871606854]}}, {"type": "Feature", "properties": {"norad_id": 42950, "name": "INTELSAT 37E (IS-37E)", "group": "intelsat", "lat": -0.016194789721171315, "lon": -165.90459946185396, "alt_km": 35778.945991252695, "timestamp": "2025-12-08T08:59:00.440036+00:00", "meta": {"OBJECT_NAME": "INTELSAT 37E (IS-37E)", "OBJECT_ID": "2017-059A", "EPOCH": "2025-12-07T22:06:38.467584", "MEAN_MOTION": 1.00270728, "ECCENTRICITY": 0.00034352, "INCLINATION": 0.0159, "RA_OF_ASC_NODE": 353.8657, "ARG_OF_PERICENTER": 259.3833, "MEAN_ANOMALY": 137.3493, "EPHEMERIS_TYPE": 0, "CLASSIFICATION_TYPE": "U", "NORAD_CAT_ID": 42950, "ELEMENT_SET_NO": 999, "REV_AT_EPOCH": 3014, "BSTAR": 0, "MEAN_MOTION_DOT": -1.38e-06, "MEAN_MOTION_DDOT": 0}, "tle": {"line1": "1 42950U 17059A   25341.92127856 -.00000138  00000+0  00000+0 0  9998", "line2": "2 42950   0.0159 353.8657 0003435 259.3833 137.3493  1.00270728 30147"}}, "geometry": {"type": "Point", "coordinates": [-165.90459946185396, -0.016194789721171315]}}, {"type": "Feature", "properties": {"norad_id": 43632, "name": "AZERSPACE 2 (IS-38)", "group": "intelsat", "lat": -0.038964956769626885, "lon": -102.75837395390431, "alt_km": 35779.853832557885, "timestamp": "2025-12-08T08:59:00.440047+00:00", "meta": {"OBJECT_NAME": "AZERSPACE 2 (IS-38)", "OBJECT_ID": "2018-074A", "EPOCH": "2025-12-07T22:07:21.467136", "MEAN_MOTION": 1.00269637, "ECCENTRICITY": 0.00016016, "INCLINATION": 0.0179, "RA_OF_ASC_NODE": 330.569, "ARG_OF_PERICENTER": 285.7075, "MEAN_ANOMALY": 197.615, "EPHEMERIS_TYPE": 0, "CLASSIFICATION_TYPE": "U", "NORAD_CAT_ID": 43632, "ELEMENT_SET_NO": 999, "REV_AT_EPOCH": 2653, "BSTAR": 0, "MEAN_MOTION_DOT": 1.4e-06, "MEAN_MOTION_DDOT": 0}, "tle": {"line1": "1 43632U 18074A   25341.92177624  .00000140  00000+0  00000+0 0  9994", "line2": "2 43632   0.0179 330.5690 0001601 285.7075 197.6150  1.00269637 26534"}}, "geometry": {"type": "Point", "coordinates": [-102.75837395390431, -0.038964956769626885]}}, {"type": "Feature", "properties": {"norad_id": 43633, "name": "HORIZONS-3E", "group": "intelsat", "lat": 0.02013691326647649, "lon": 21.15701418661457, "alt_km": 35788.159737289716, "timestamp": "2025-12-08T08:59:00.440059+00:00", "meta": {"OBJECT_NAME": "HORIZONS-3E", "OBJECT_ID": "2018-074B", "EPOCH": "2025-12-07T21:17:14.543232", "MEAN_MOTION": 1.00268652, "ECCENTRICITY": 0.00012198, "INCLINATION": 0.0424, "RA_OF_ASC_NODE": 181.1196, "ARG_OF_PERICENTER": 96.5634, "MEAN_ANOMALY": 287.5494, "EPHEMERIS_TYPE": 0, "CLASSIFICATION_TYPE": "U", "NORAD_CAT_ID": 43633, "ELEMENT_SET_NO": 999, "REV_AT_EPOCH": 2642, "BSTAR": 0, "MEAN_MOTION_DOT": -2.8e-07, "MEAN_MOTION_DDOT": 0}, "tle": {"line1": "1 43633U 18074B   25341.88697388 -.00000028  00000+0  00000+0 0  9990", "line2": "2 43633   0.0424 181.1196 0001219  96.5634 287.5494  1.00268652 26427"}}, "geometry": {"type": "Point", "coordinates": [21.15701418661457, 0.02013691326647649]}}, {"type": "Feature", "properties": {"norad_id": 44333, "name": "AT&T T-16", "group": "intelsat", "lat": 0.029321348431776518, "lon": 111.25904666315408, "alt_km": 35784.92857703227, "timestamp": "2025-12-08T08:59:00.440071+00:00", "meta": {"OBJECT_NAME": "AT&T T-16", "OBJECT_ID": "2019-034A", "EPOCH": "2025-12-07T21:42:57.079584", "MEAN_MOTION": 1.00269342, "ECCENTRICITY": 8.748e-05, "INCLINATION": 0.0249, "RA_OF_ASC_NODE": 62.1776, "ARG_OF_PERICENTER": 108.8595, "MEAN_ANOMALY": 130.7631, "EPHEMERIS_TYPE": 0, "CLASSIFICATION_TYPE": "U", "NORAD_CAT_ID": 44333, "ELEMENT_SET_NO": 999, "REV_AT_EPOCH": 2371, "BSTAR": 0, "MEAN_MOTION_DOT": -1.12e-06, "MEAN_MOTION_DDOT": 0}, "tle": {"line1": "1 44333U 19034A   25341.90482731 -.00000112  00000+0  00000+0 0  9996", "line2": "2 44333   0.0249  62.1776 0000874 108.8595 130.7631  1.00269342 23719"}}, "geometry": {"type": "Point", "coordinates": [111.25904666315408, 0.029321348431776518]}}]}